{
  "type": "FeatureCollection",
  "features": [
    {
      "type": "Feature",
      "properties": {
        "norad_id": 66561,
        "name": "STARLINK-35305",
        "group": "last-30-days",
        "lat": -39.39121788128585,
        "lon": 4.138409497305077,
        "alt_km": 400.40664041319906,
        "timestamp": "2025-12-22T04:03:37.885159+00:00",
        "meta_object_name": "STARLINK-35305",
        "meta_object_id": "2025-268E",
        "meta_epoch": "2025-12-21T20:00:01.999008",
        "meta_mean_motion": 15.56487404,
        "meta_eccentricity": 0.0001495,
        "meta_inclination": 43.0006,
        "meta_ra_of_asc_node": 67.9072,
        "meta_arg_of_pericenter": 269.2682,
        "meta_mean_anomaly": 298.2068,
        "meta_ephemeris_type": 0,
        "meta_classification_type": "U",
        "meta_norad_cat_id": 66561,
        "meta_element_set_no": 999,
        "meta_rev_at_epoch": 608,
        "meta_bstar": -0.002375,
        "meta_mean_motion_dot": -0.00169526,
        "meta_mean_motion_ddot": 0,
        "tle_line1": "1 66561U 25268E   25355.83335647 -.00169526  00000+0 -23750-2 0  9995",
        "tle_line2": "2 66561  43.0006  67.9072 0001495 269.2682 298.2068 15.56487404  6087"
      },
      "geometry": {
        "type": "Point",
        "coordinates": [
          4.138409497305077,
          -39.39121788128585
        ]
      }
    },
    {
      "type": "Feature",
      "properties": {
        "norad_id": 66562,
        "name": "STARLINK-35579",
        "group": "last-30-days",
        "lat": -39.983700958917616,
        "lon": 1.7807768269716013,
        "alt_km": 400.35421017045974,
        "timestamp": "2025-12-22T04:03:37.885171+00:00",
        "meta_object_name": "STARLINK-35579",
        "meta_object_id": "2025-268F",
        "meta_epoch": "2025-12-21T20:00:01.999008",
        "meta_mean_motion": 15.56475151,
        "meta_eccentricity": 0.000166,
        "meta_inclination": 43.0006,
        "meta_ra_of_asc_node": 67.9121,
        "meta_arg_of_pericenter": 263.0544,
        "meta_mean_anomaly": 302.5092,
        "meta_ephemeris_type": 0,
        "meta_classification_type": "U",
        "meta_norad_cat_id": 66562,
        "meta_element_set_no": 999,
        "meta_rev_at_epoch": 608,
        "meta_bstar": -0.0020601,
        "meta_mean_motion_dot": -0.00147438,
        "meta_mean_motion_ddot": 0,
        "tle_line1": "1 66562U 25268F   25355.83335647 -.00147438  00000+0 -20601-2 0  9996",
        "tle_line2": "2 66562  43.0006  67.9121 0001660 263.0544 302.5092 15.56475151  6088"
      },
      "geometry": {
        "type": "Point",
        "coordinates": [
          1.7807768269716013,
          -39.983700958917616
        ]
      }
    },
    {
      "type": "Feature",
      "properties": {
        "norad_id": 66563,
        "name": "STARLINK-35437",
        "group": "last-30-days",
        "lat": -38.74608303063241,
        "lon": 6.475399318016118,
        "alt_km": 400.3949937365487,
        "timestamp": "2025-12-22T04:03:37.885181+00:00",
        "meta_object_name": "STARLINK-35437",
        "meta_object_id": "2025-268G",
        "meta_epoch": "2025-12-21T20:00:01.999008",
        "meta_mean_motion": 15.56511457,
        "meta_eccentricity": 0.0001678,
        "meta_inclination": 43.0006,
        "meta_ra_of_asc_node": 67.9032,
        "meta_arg_of_pericenter": 260.7446,
        "meta_mean_anomaly": 308.6541,
        "meta_ephemeris_type": 0,
        "meta_classification_type": "U",
        "meta_norad_cat_id": 66563,
        "meta_element_set_no": 999,
        "meta_rev_at_epoch": 608,
        "meta_bstar": -0.003237,
        "meta_mean_motion_dot": -0.00229419,
        "meta_mean_motion_ddot": 0,
        "tle_line1": "1 66563U 25268G   25355.83335647 -.00229419  00000+0 -32370-2 0  9993",
        "tle_line2": "2 66563  43.0006  67.9032 0001678 260.7446 308.6541 15.56511457  6080"
      },
      "geometry": {
        "type": "Point",
        "coordinates": [
          6.475399318016118,
          -38.74608303063241
        ]
      }
    },
    {
      "type": "Feature",
      "properties": {
        "norad_id": 66564,
        "name": "STARLINK-35358",
        "group": "last-30-days",
        "lat": -38.06643785564209,
        "lon": 8.73157119949859,
        "alt_km": 400.4257462674368,
        "timestamp": "2025-12-22T04:03:37.885199+00:00",
        "meta_object_name": "STARLINK-35358",
        "meta_object_id": "2025-268H",
        "meta_epoch": "2025-12-21T20:00:01.999008",
        "meta_mean_motion": 15.56481699,
        "meta_eccentricity": 0.0001467,
        "meta_inclination": 43.0006,
        "meta_ra_of_asc_node": 67.8979,
        "meta_arg_of_pericenter": 263.8156,
        "meta_mean_anomaly": 307.4911,
        "meta_ephemeris_type": 0,
        "meta_classification_type": "U",
        "meta_norad_cat_id": 66564,
        "meta_element_set_no": 999,
        "meta_rev_at_epoch": 608,
        "meta_bstar": -0.0022101,
        "meta_mean_motion_dot": -0.00157968,
        "meta_mean_motion_ddot": 0,
        "tle_line1": "1 66564U 25268H   25355.83335647 -.00157968  00000+0 -22101-2 0  9994",
        "tle_line2": "2 66564  43.0006  67.8979 0001467 263.8156 307.4911 15.56481699  6080"
      },
      "geometry": {
        "type": "Point",
        "coordinates": [
          8.73157119949859,
          -38.06643785564209
        ]
      }
    },
    {
      "type": "Feature",
      "properties": {
        "norad_id": 66565,
        "name": "STARLINK-35893",
        "group": "last-30-days",
        "lat": -37.33516210502143,
        "lon": 10.971306636909201,
        "alt_km": 400.2550439888273,
        "timestamp": "2025-12-22T04:03:37.885209+00:00",
        "meta_object_name": "STARLINK-35893",
        "meta_object_id": "2025-268J",
        "meta_epoch": "2025-12-21T20:00:01.999008",
        "meta_mean_motion": 15.56506121,
        "meta_eccentricity": 0.0001571,
        "meta_inclination": 43.0007,
        "meta_ra_of_asc_node": 67.8919,
        "meta_arg_of_pericenter": 270.2372,
        "meta_mean_anomaly": 302.9728,
        "meta_ephemeris_type": 0,
        "meta_classification_type": "U",
        "meta_norad_cat_id": 66565,
        "meta_element_set_no": 999,
        "meta_rev_at_epoch": 608,
        "meta_bstar": -0.0024812,
        "meta_mean_motion_dot": -0.00177043,
        "meta_mean_motion_ddot": 0,
        "tle_line1": "1 66565U 25268J   25355.83335647 -.00177043  00000+0 -24812-2 0  9992",
        "tle_line2": "2 66565  43.0007  67.8919 0001571 270.2372 302.9728 15.56506121  6088"
      },
      "geometry": {
        "type": "Point",
        "coordinates": [
          10.971306636909201,
          -37.33516210502143
        ]
      }
    },
    {
      "type": "Feature",
      "properties": {
        "norad_id": 66566,
        "name": "STARLINK-35871",
        "group": "last-30-days",
        "lat": -36.5669451924169,
        "lon": 13.155253857326674,
        "alt_km": 400.4208646048528,
        "timestamp": "2025-12-22T04:03:37.885220+00:00",
        "meta_object_name": "STARLINK-35871",
        "meta_object_id": "2025-268K",
        "meta_epoch": "2025-12-21T20:00:01.999008",
        "meta_mean_motion": 15.56482692,
        "meta_eccentricity": 0.0001447,
        "meta_inclination": 43.0006,
        "meta_ra_of_asc_node": 67.8879,
        "meta_arg_of_pericenter": 261.7458,
        "meta_mean_anomaly": 313.396,
        "meta_ephemeris_type": 0,
        "meta_classification_type": "U",
        "meta_norad_cat_id": 66566,
        "meta_element_set_no": 999,
        "meta_rev_at_epoch": 608,
        "meta_bstar": -0.0022491,
        "meta_mean_motion_dot": -0.00160705,
        "meta_mean_motion_ddot": 0,
        "tle_line1": "1 66566U 25268K   25355.83335647 -.00160705  00000+0 -22491-2 0  9991",
        "tle_line2": "2 66566  43.0006  67.8879 0001447 261.7458 313.3960 15.56482692  6085"
      },
      "geometry": {
        "type": "Point",
        "coordinates": [
          13.155253857326674,
          -36.5669451924169
        ]
      }
    },
    {
      "type": "Feature",
      "properties": {
        "norad_id": 66567,
        "name": "STARLINK-35825",
        "group": "last-30-days",
        "lat": -35.75759390975371,
        "lon": 15.300274194379407,
        "alt_km": 400.2683878012267,
        "timestamp": "2025-12-22T04:03:37.885231+00:00",
        "meta_object_name": "STARLINK-35825",
        "meta_object_id": "2025-268L",
        "meta_epoch": "2025-12-21T20:00:01.999008",
        "meta_mean_motion": 15.56460887,
        "meta_eccentricity": 0.0001484,
        "meta_inclination": 43.0008,
        "meta_ra_of_asc_node": 67.8834,
        "meta_arg_of_pericenter": 270.4042,
        "meta_mean_anomaly": 306.663,
        "meta_ephemeris_type": 0,
        "meta_classification_type": "U",
        "meta_norad_cat_id": 66567,
        "meta_element_set_no": 999,
        "meta_rev_at_epoch": 608,
        "meta_bstar": -0.0015727,
        "meta_mean_motion_dot": -0.00113063,
        "meta_mean_motion_ddot": 0,
        "tle_line1": "1 66567U 25268L   25355.83335647 -.00113063  00000+0 -15727-2 0  9991",
        "tle_line2": "2 66567  43.0008  67.8834 0001484 270.4042 306.6630 15.56460887  6087"
      },
      "geometry": {
        "type": "Point",
        "coordinates": [
          15.300274194379407,
          -35.75759390975371
        ]
      }
    }
  ]
}